LEMUR-2-ANDIS           
1 42838U 17042P   26068.55941107  .00023598  00000+0  79875-3 0  9998
2 42838  97.3659 249.7950 0009101   4.3248 355.8070 15.30557934473198
STARLINK-33709          
1 63419U 25065W   26068.14755491  .00041815  00000+0  15197-2 0  9992
2 63419  42.9977 110.3793 0001213 265.0851  94.9862 15.27595604 52752
